NORAD_CAT_ID,OBJECT_NAME,OBJECT_TYPE,EPOCH,MEAN_MOTION,ECCENTRICITY,INCLINATION,RA_OF_ASC_NODE,ARG_OF_PERICENTER,MEAN_ANOMALY,BSTAR,MEAN_MOTION_DOT,MEAN_MOTION_DDOT,TLE_LINE0,TLE_LINE1,TLE_LINE2,SEMIMAJOR_AXIS,PERIOD,APOGEE,PERIGEE,DECAYED
49160.0,STARLINK-3095,PAYLOAD,2024-01-28 04:45:23,14.98334527,0.000281,69.9999,79.6458,257.9163,102.1681,-2.8545e-07,-9.6e-07,0.0,0 STARLINK-3095,1 49160U 21082AG  24028.19818950 -.00000096  00000-0 -28545-6 0  9997,2 49160  69.9999  79.6458 0002810 257.9163 102.1681 14.98334527131499,6950.179,96.107,573.997,570.091,0.0
49160.0,STARLINK-3095,PAYLOAD,2024-01-28 12:46:03,14.98335217,0.0002908,69.9996,78.8029,265.7531,94.3296,6.2513e-06,-1.8e-07,0.0,0 STARLINK-3095,1 49160U 21082AG  24028.53198846 -.00000018  00000-0  62513-5 0  9995,2 49160  69.9996  78.8029 0002908 265.7531  94.3296 14.98335217131531,6950.177,96.107,574.063,570.021,0.0
49160.0,STARLINK-3095,PAYLOAD,2024-01-29 11:11:56,14.98331692,0.0002972,69.9995,76.4463,265.7543,94.3276,0.0001204,1.344e-05,0.0,0 STARLINK-3095,1 49160U 21082AG  24029.46662663  .00001344  00000-0  12040-3 0  9991,2 49160  69.9995  76.4463 0002972 265.7543  94.3276 14.98331692131687,6950.188,96.107,574.118,569.987,0.0
49160.0,STARLINK-3095,PAYLOAD,2024-01-29 12:48:04,14.98331645,0.0002975,69.9995,76.2779,265.9117,94.1702,0.00011742,1.308e-05,0.0,0 STARLINK-3095,1 49160U 21082AG  24029.53338664  .00001308  00000-0  11742-3 0  9998,2 49160  69.9995  76.2779 0002975 265.9117  94.1702 14.98331645131687,6950.188,96.107,574.12,569.985,0.0
49160.0,STARLINK-3095,PAYLOAD,2024-01-30 11:13:57,14.98331932,0.0002848,69.9996,73.9211,265.7631,94.3203,1.2413e-05,5.5e-07,0.0,0 STARLINK-3095,1 49160U 21082AG  24030.46802858  .00000055  00000-0  12413-4 0  9998,2 49160  69.9996  73.9211 0002848 265.7631  94.3203 14.98331932131835,6950.187,96.107,574.031,570.073,0.0
49160.0,STARLINK-3095,PAYLOAD,2024-01-30 12:50:05,14.98332459,0.0002864,69.9996,73.7519,268.6513,91.4318,1.9617e-05,1.41e-06,0.0,0 STARLINK-3095,1 49160U 21082AG  24030.53478811  .00000141  00000-0  19617-4 0  9993,2 49160  69.9996  73.7519 0002864 268.6513  91.4318 14.98332459131833,6950.185,96.107,574.041,570.06,0.0
49160.0,STARLINK-3095,PAYLOAD,2024-01-31 11:15:58,14.98330794,0.0002798,69.9997,71.3955,270.7447,89.3391,-2.9448e-06,-1.28e-06,0.0,0 STARLINK-3095,1 49160U 21082AG  24031.46942840 -.00000128  00000-0 -29448-5 0  9995,2 49160  69.9997  71.3955 0002798 270.7447  89.3391 14.98330794131981,6950.19,96.107,574.0,570.111,0.0
49160.0,STARLINK-3095,PAYLOAD,2024-01-31 12:52:06,14.98330808,0.0002796,69.9997,71.2271,270.822,89.2619,-2.6391e-06,-1.24e-06,0.0,0 STARLINK-3095,1 49160U 21082AG  24031.53618831 -.00000124  00000-0 -26391-5 0  9993,2 49160  69.9997  71.2271 0002796 270.8220  89.2619 14.98330808131987,6950.19,96.107,573.999,570.112,0.0
49160.0,STARLINK-3095,PAYLOAD,2024-02-01 11:17:59,14.98328369,0.0002842,69.9996,68.8705,273.4839,86.5995,1.0457e-05,3.2e-07,0.0,0 STARLINK-3095,1 49160U 21082AG  24032.47082968  .00000032  00000-0  10457-4 0  9994,2 49160  69.9996  68.8705 0002842 273.4839  86.5995 14.98328369132131,6950.198,96.107,574.038,570.088,0.0
49160.0,STARLINK-3095,PAYLOAD,2024-02-02 11:20:00,14.98329677,0.000281,69.9996,66.3459,268.9942,91.0895,2.2803e-05,1.79e-06,0.0,0 STARLINK-3095,1 49160U 21082AG  24033.47222829  .00000179  00000-0  22803-4 0  9997,2 49160  69.9996  66.3459 0002810 268.9942  91.0895 14.98329677132288,6950.194,96.107,574.012,570.106,0.0
49160.0,STARLINK-3095,PAYLOAD,2024-02-03 11:22:01,14.98330658,0.0002825,69.9996,63.8216,261.8306,98.2533,3.8285e-05,3.64e-06,0.0,0 STARLINK-3095,1 49160U 21082AG  24034.47362654  .00000364  00000-0  38285-4 0  9996,2 49160  69.9996  63.8216 0002825 261.8306  98.2533 14.98330658132439,6950.191,96.107,574.019,570.092,0.0
49160.0,STARLINK-3095,PAYLOAD,2024-02-03 19:22:41,14.98331208,0.0002924,69.9994,62.9784,270.7831,89.2993,3.3107e-05,3.02e-06,0.0,0 STARLINK-3095,1 49160U 21082AG  24034.80742646  .00000302  00000-0  33107-4 0  9996,2 49160  69.9994  62.9784 0002924 270.7831  89.2993 14.98331208132475,6950.189,96.107,574.086,570.022,0.0
49160.0,STARLINK-3095,PAYLOAD,2024-02-04 11:24:02,14.98330992,0.0002919,69.9994,61.295,270.4729,89.6096,2.3809e-05,1.91e-06,0.0,0 STARLINK-3095,1 49160U 21082AG  24035.47502683  .00000191  00000-0  23809-4 0  9999,2 49160  69.9994  61.2950 0002919 270.4729  89.6096 14.98330992132588,6950.19,96.107,574.084,570.026,0.0
49160.0,STARLINK-3095,PAYLOAD,2024-02-05 11:26:02,14.98335198,0.0002941,69.9995,58.77,270.5369,89.5453,6.0117e-05,6.24e-06,0.0,0 STARLINK-3095,1 49160U 21082AG  24036.47642169  .00000624  00000-0  60117-4 0  9998,2 49160  69.9995  58.7700 0002941 270.5369  89.5453 14.98335198132735,6950.177,96.107,574.086,569.998,0.0
49160.0,STARLINK-3095,PAYLOAD,2024-02-06 03:27:23,14.9832836,0.0002909,69.9996,57.0867,270.5528,89.5298,1.1618e-05,4.6e-07,0.0,0 STARLINK-3095,1 49160U 21082AG  24037.14402645  .00000046  00000-0  11618-4 0  9996,2 49160  69.9996  57.0867 0002909 270.5528  89.5298 14.98328360132834,6950.198,96.107,574.085,570.041,0.0
49160.0,STARLINK-3095,PAYLOAD,2024-02-06 11:28:04,14.98329577,0.0002831,69.9999,56.2466,266.3631,93.7204,1.9016e-05,1.34e-06,0.0,0 STARLINK-3095,1 49160U 21082AG  24037.47782554  .00000134  00000-0  19016-4 0  9990,2 49160  69.9999  56.2466 0002831 266.3631  93.7204 14.98329577132874,6950.194,96.107,574.027,570.092,0.0
49160.0,STARLINK-3095,PAYLOAD,2024-02-07 03:29:24,14.98332135,0.0002817,70.0,54.563,267.2416,92.8421,-2.4208e-06,-1.22e-06,0.0,0 STARLINK-3095,1 49160U 21082AG  24038.14542422 -.00000122  00000-0 -24208-5 0  9992,2 49160  70.0000  54.5630 0002817 267.2416  92.8421 14.98332135132986,6950.186,96.107,574.009,570.093,0.0
49160.0,STARLINK-3095,PAYLOAD,2024-02-07 09:53:56,14.98333016,0.0002803,70.0,53.8897,267.3888,92.695,9.5377e-06,2.1e-07,0.0,0 STARLINK-3095,1 49160U 21082AG  24038.41246301  .00000021  00000-0  95377-5 0  9990,2 49160  70.0000  53.8897 0002803 267.3888  92.6950 14.98333016133011,6950.184,96.107,573.997,570.1,0.0
49160.0,STARLINK-3095,PAYLOAD,2024-02-07 17:54:37,14.9833069,0.0002797,70.0,53.0477,268.5182,91.5657,3.4068e-06,-5.2e-07,0.0,0 STARLINK-3095,1 49160U 21082AG  24038.74626443 -.00000052  00000-0  34068-5 0  9990,2 49160  70.0000  53.0477 0002797 268.5182  91.5657 14.98330690133061,6950.191,96.107,574.0,570.112,0.0
49160.0,STARLINK-3095,PAYLOAD,2024-02-08 09:55:58,14.98327584,0.0002831,69.9999,51.3641,267.1392,92.9443,1.8051e-05,1.22e-06,0.0,0 STARLINK-3095,1 49160U 21082AG  24039.41386636  .00000122  00000-0  18051-4 0  9992,2 49160  69.9999  51.3641 0002831 267.1392  92.9443 14.98327584133174,6950.2,96.107,574.033,570.098,0.0
49160.0,STARLINK-3095,PAYLOAD,2024-02-09 09:57:58,14.98331099,0.0002859,69.9999,48.8391,267.2077,92.8755,2.5176e-05,2.07e-06,0.0,0 STARLINK-3095,1 49160U 21082AG  24040.41526435  .00000207  00000-0  25176-4 0  9997,2 49160  69.9999  48.8391 0002859 267.2077  92.8755 14.98331099133326,6950.189,96.107,574.042,570.067,0.0
49160.0,STARLINK-3095,PAYLOAD,2024-02-10 09:59:59,14.98336784,0.0002774,70.0002,46.3136,263.516,96.5683,0.00013602,1.531e-05,0.0,0 STARLINK-3095,1 49160U 21082AG  24041.41665708  .00001531  00000-0  13602-3 0  9996,2 49160  70.0002  46.3136 0002774 263.5160  96.5683 14.98336784133475,6950.172,96.107,573.965,570.109,0.0
49160.0,STARLINK-3095,PAYLOAD,2024-02-11 03:37:28,14.98329982,0.0002578,70.0009,44.4645,251.378,108.7099,3.6719e-05,3.45e-06,0.0,0 STARLINK-3095,1 49160U 21082AG  24042.15102264  .00000345  00000-0  36719-4 0  9998,2 49160  70.0009  44.4645 0002578 251.3780 108.7099 14.98329982133582,6950.193,96.107,573.85,570.266,0.0
49160.0,STARLINK-3095,PAYLOAD,2024-02-11 10:02:00,14.9832633,0.000261,70.001,43.7911,254.8908,105.1962,-5.8359e-06,-1.63e-06,0.0,0 STARLINK-3095,1 49160U 21082AG  24042.41806631 -.00000163  00000-0 -58359-5 0  9991,2 49160  70.0010  43.7911 0002610 254.8908 105.1962 14.98326330133617,6950.204,96.107,573.883,570.255,0.0
49160.0,STARLINK-3095,PAYLOAD,2024-02-12 03:39:29,14.98336401,0.0002739,70.0008,41.939,258.0471,102.0381,-1.64e-05,-2.89e-06,0.0,0 STARLINK-3095,1 49160U 21082AG  24043.15241941 -.00000289  00000-0 -16400-4 0  9999,2 49160  70.0008  41.9390 0002739 258.0471 102.0381 14.98336401133732,6950.173,96.107,573.942,570.134,0.0
49160.0,STARLINK-3095,PAYLOAD,2024-02-12 10:04:00,14.98347102,0.0002548,70.0007,41.2648,257.8396,102.2478,-0.0001252,-1.587e-05,0.0,0 STARLINK-3095,1 49160U 21082AG  24043.41945419 -.00001587  00000-0 -12520-3 0  9999,2 49160  70.0007  41.2648 0002548 257.8396 102.2478 14.98347102133774,6950.14,96.106,573.776,570.234,0.0
49160.0,STARLINK-3095,PAYLOAD,2024-02-12 22:53:06,14.98325133,0.0002486,70.0012,39.9181,257.0662,103.0219,4.9435e-05,4.97e-06,0.0,0 STARLINK-3095,1 49160U 21082AG  24043.95354303  .00000497  00000-0  49435-4 0  9997,2 49160  70.0012  39.9181 0002486 257.0662 103.0219 14.98325133133845,6950.208,96.107,573.801,570.345,0.0
49160.0,STARLINK-3095,PAYLOAD,2024-02-13 03:41:30,14.983228,0.0002539,70.001,39.4128,257.4414,102.6461,1.6052e-05,9.9e-07,0.0,0 STARLINK-3095,1 49160U 21082AG  24044.15382605  .00000099  00000-0  16052-4 0  9993,2 49160  70.0010  39.4128 0002539 257.4414 102.6461 14.98322800133883,6950.215,96.107,573.845,570.315,0.0
49160.0,STARLINK-3095,PAYLOAD,2024-02-13 10:06:02,14.983247,0.0002521,70.0011,38.7394,257.8823,102.2053,3.6975e-05,3.48e-06,0.0,0 STARLINK-3095,1 49160U 21082AG  24044.42086574  .00000348  00000-0  36975-4 0  9992,2 49160  70.0011  38.7394 0002521 257.8823 102.2053 14.98324700133918,6950.209,96.107,573.826,570.322,0.0
49160.0,STARLINK-3095,PAYLOAD,2024-02-13 16:30:35,14.98327798,0.0002501,70.0014,38.0665,265.1754,94.912,3.6649e-05,3.44e-06,0.0,0 STARLINK-3095,1 49160U 21082AG  24044.68790513  .00000344  00000-0  36649-4 0  9999,2 49160  70.0014  38.0665 0002501 265.1754  94.9120 14.98327798133954,6950.2,96.107,573.803,570.326,0.0
